STARLINK-4303           
1 53544U 22101T   26068.22478889 -.00000245  00000+0  27006-5 0  9998
2 53544  53.2179  66.2102 0001366  95.7159 264.3989 15.08836273196908
LEMUR-2-UNTITLED-SC     
1 63351U 25061A   26068.89211098  .00005783  00000+0  33296-3 0  9990
2 63351  97.5556  45.0864 0017373 245.6030 114.3388 15.12695529 52577
